STARLINK-32185          
1 60341U 24136N   26003.75307343 -.00000551  00000+0 -64897-5 0  9994
2 60341  53.1599  17.2044 0001412  96.0200 264.0962 15.30195088 79725
STARLINK-32221          
1 60342U 24136P   26003.75623856  .00002164  00000+0  85171-4 0  9992
2 60342  53.1611  17.2253 0000981  87.7156 272.3957 15.30194870 79724
STARLINK-32083          
1 60343U 24136Q   26003.75726403  .00002885  00000+0  10945-3 0  9991
2 60343  53.1634  17.1975 0001668  93.6459 266.4733 15.30211002 79728
STARLINK-32077          
1 60344U 24136R   26003.74991311  .00001071  00000+0  48293-4 0  9997
2 60344  53.1625  17.1835 0001875  74.1134 286.0073 15.30190037 79727
STARLINK-32075          
1 60345U 24136S   26003.41911783  .00000096  00000+0  15382-4 0  9996
2 60345  53.1622  18.6767 0001777  89.9086 270.2119 15.30190120 79679
STARLINK-32082          
1 60346U 24136T   26003.74674152  .00000105  00000+0  15676-4 0  9996
2 60346  53.1621  17.1673 0001494  98.8271 261.2899 15.30192865 79729
STARLINK-32084          
1 60347U 24136U   26003.74357692  .00000169  00000+0  17825-4 0  9992
2 60347  53.1612  17.1456 0001368 102.0502 258.0653 15.30192265 79720
STARLINK-32081          
1 60348U 24136V   26003.74040899 -.00000735  00000+0 -12693-4 0  9990
2 60348  53.1627  17.1254 0001538 115.7140 244.4019 15.30195126 79725
STARLINK-32181          
1 60349U 24136W   26003.73091016  .00002224  00000+0  87201-4 0  9997
2 60349  53.1611  17.0646 0001873  95.1758 264.9457 15.30201467 79720
STARLINK-32076          
1 60350U 24136X   26003.73407628  .00000637  00000+0  33628-4 0  9999
2 60350  53.1611  17.0862 0001168  93.5148 266.5987 15.30194148 79727
STARLINK-32097          
1 60351U 24136Y   26003.72774252  .00000794  00000+0  38920-4 0  9993
2 60351  53.1630  17.0451 0001449 106.3568 253.7592 15.30199040 79720
STARLINK-32285          
1 60355U 24138A   26003.97132156 -.00000673  00000+0 -10604-4 0  9994
2 60355  53.1606 249.8821 0001156  68.9882 291.1242 15.30184275 80724
STARLINK-32278          
1 60356U 24138B   26003.96825793 -.00003492  00000+0 -10591-3 0  9996
2 60356  53.1581 250.5601 0000977  74.4360 285.6748 15.30181665 80713
STARLINK-32287          
1 60358U 24138D   26003.96509824 -.00002062  00000+0 -57551-4 0  9992
2 60358  53.1583 250.5524 0001039  83.0371 277.0748 15.30184581 80714
STARLINK-32290          
1 60359U 24138E   26003.96721116 -.00000237  00000+0  41261-5 0  9996
2 60359  53.1608 250.5664 0001186  86.0195 274.0941 15.30189037 61743
STARLINK-32275          
1 60360U 24138F   26003.93765005  .00002399  00000+0  93098-4 0  9994
2 60360  53.1606 250.3802 0001106  81.8595 278.2532 15.30201507 80711
STARLINK-32227          
1 60361U 24138G   26003.89554378 -.00001265  00000+0 -30564-4 0  9991
2 60361  53.1592 250.8191 0001550  83.0147 277.1030 15.30211227 80713
STARLINK-32256          
1 60362U 24138H   26003.96614774  .00000598  00000+0  32326-4 0  9991
2 60362  53.1604 250.5467 0001167  80.6518 279.4615 15.30198627 80701
STARLINK-32267          
1 60363U 24138J   26003.95558830  .00008566  00000+0  30083-3 0  9991
2 60363  53.1588 250.4905 0001122  81.2992 278.8136 15.30220467 80713
STARLINK-32270          
1 60364U 24138K   26003.94716378 -.00000071  00000+0  97453-5 0  9994
2 60364  53.1598 250.4448 0001185  70.4158 289.6971 15.30177280 80610
STARLINK-32188          
1 60365U 24138L   26003.94082373  .00007275  00000+0  25751-3 0  9998
2 60365  53.1587 250.3981 0001077  67.3360 292.7754 15.30198698 80711
STARLINK-32230          
1 60366U 24138M   26003.95349047  .00000503  00000+0  29116-4 0  9991
2 60366  53.1600 250.4799 0001124  82.7377 277.3751 15.30186427 80711
STARLINK-32243          
1 60367U 24138N   26003.94293265  .00000882  00000+0  41898-4 0  9992
2 60367  53.1604 250.4105 0001356  88.6872 271.4284 15.30190428 80711
STARLINK-32271          
1 60368U 24138P   26003.96299256 -.00000219  00000+0  47493-5 0  9994
2 60368  53.1614 250.5393 0001304  83.3496 276.7653 15.30183615 80718
STARLINK-32266          
1 60369U 24138Q   26004.00002315  .00419071  00000+0  58991-2 0  9990
2 60369  53.1439 232.7610 0013535 177.2045 170.4016 15.54602798  5556
STARLINK-32220          
1 60370U 24138R   26003.94927907 -.00000204  00000+0  52372-5 0  9992
2 60370  53.1590 250.4493 0001123  92.0975 268.0154 15.30178287 80711
STARLINK-32263          
1 60371U 24138S   26003.90916687  .00022463  00000+0  76846-3 0  9992
2 60371  53.1575 250.2046 0001285 100.7610 259.3535 15.30191311 80617
STARLINK-32268          
1 60372U 24138T   26003.96404670 -.00001104  00000+0 -25147-4 0  9993
2 60372  53.1609 250.5430 0001389  71.4251 288.6901 15.30187185 80713
STARLINK-32223          
1 60373U 24138U   26003.94398733  .00000353  00000+0  24049-4 0  9997
2 60373  53.1599 250.4188 0001115  76.1975 283.9150 15.30193318 80611
STARLINK-32180          
1 60374U 24138V   26003.94609889  .00000837  00000+0  40380-4 0  9998
2 60374  53.1591 250.4276 0001374  96.3355 263.7802 15.30192901 80713
STARLINK-32281          
1 60375U 24138W   26003.91866395  .00001050  00000+0  47590-4 0  9991
2 60375  53.1596 250.2635 0001133 124.2152 235.8957 15.30190452 80614
STARLINK-32277          
1 60376U 24138X   26003.95243196  .00002838  00000+0  10793-3 0  9993
2 60376  53.1592 250.4683 0001271  85.4197 274.6949 15.30193761 80715
STARLINK-32269          
1 60377U 24138Y   26003.93658173  .00006065  00000+0  21658-3 0  9995
2 60377  53.1610 250.3688 0001504 115.0595 245.0562 15.30220761 80716
STARLINK-11228 [DTC]    
1 60398U 24141A   26003.62569095 -.00002550  00000+0 -16180-4 0  9994
2 60398  53.1584  47.0201 0001346  59.1146 301.0004 15.69727332 81471
STARLINK-11182 [DTC]    
1 60399U 24141B   26003.41996611 -.00000183  00000+0  33491-5 0  9994
2 60399  53.1583  47.8679 0001386  82.4483 277.6692 15.69723582 81491
STARLINK-11234 [DTC]    
1 60400U 24141C   26003.41505797  .00003896  00000+0  36993-4 0  9990
2 60400  53.1593  47.8333 0001335  93.5764 266.5407 15.69715371 81444
STARLINK-11232 [DTC]    
1 60401U 24141D   26003.53749528 -.00001451  00000+0 -71192-5 0  9994
2 60401  53.1593  47.1698 0001000  83.1451 276.9680 15.69720623 81511
STARLINK-11139 [DTC]    
1 60402U 24141E   26003.40524492  .00000051  00000+0  52790-5 0  9998
2 60402  53.1601  47.7702 0001377  84.1357 275.9818 15.69729918 81492
STARLINK-11158 [DTC]    
1 60403U 24141F   26003.52778404 -.00002032  00000+0 -11907-4 0  9993
2 60403  53.1596  47.8419 0001156  95.8045 264.3105 15.69727911 81458
STARLINK-11199 [DTC]    
1 60404U 24141G   26003.52288428  .00003864  00000+0  36745-4 0  9995
2 60404  53.1593  47.8107 0001498  63.6187 296.4985 15.69706181 81503
STARLINK-11081 [DTC]    
1 60405U 24141H   26003.51798778  .00003006  00000+0  29681-4 0  9998
2 60405  53.1593  47.7757 0001163  98.0877 262.0273 15.69695824 81455
STARLINK-11150 [DTC]    
1 60406U 24141J   26003.51306664 -.00005144  00000+0 -37584-4 0  9996
2 60406  53.1589  47.7421 0001378  93.1863 266.9312 15.69730905 81501
STARLINK-11136 [DTC]    
1 60407U 24141K   26003.38082366  .00004474  00000+0  41761-4 0  9997
2 60407  53.1589  48.3403 0001446  82.5672 277.5510 15.69714891 81431
STARLINK-11196 [DTC]    
1 60408U 24141L   26003.50326318  .00002127  00000+0  22416-4 0  9999
2 60408  53.1578  47.6784 0001483  99.5664 260.5522 15.69712896 81500
STARLINK-11174 [DTC]    
1 60409U 24141M   26003.49344676 -.00001212  00000+0 -51330-5 0  9999
2 60409  53.1596  47.6117 0001600 118.4777 241.6402 15.69722225 81456
STARLINK-11191 [DTC]    
1 60410U 24141N   26003.29753916 -.00001783  00000+0 -98569-5 0  9998
2 60410  53.1594  48.5217 0001231  97.6872 262.4286 15.69718305 81478
STARLINK-32244          
1 60411U 24141P   26003.87103094  .00000373  00000+0  24702-4 0  9998
2 60411  53.1586 183.8737 0000805 111.6642 248.4445 15.30209234 79650
STARLINK-32186          
1 60412U 24141Q   26003.93318182  .00000240  00000+0  20226-4 0  9992
2 60412  53.1599 183.5501 0000975  99.3294 260.7818 15.30192002 79604
STARLINK-32178          
1 60413U 24141R   26003.79305785  .00000750  00000+0  37471-4 0  9998
2 60413  53.1602 184.0966 0001157  71.2108 288.9018 15.30189803 79583
STARLINK-32234          
1 60414U 24141S   26003.79938694  .00000066  00000+0  14353-4 0  9994
2 60414  53.1605 184.1377 0001387  99.7031 260.4127 15.30194352 79647
STARLINK-32265          
1 60415U 24141T   26003.79622816  .00000491  00000+0  28699-4 0  9991
2 60415  53.1613 184.1167 0000946  81.1402 278.9706 15.30192172 79646
STARLINK-32197          
1 60416U 24141U   26003.73727827  .00005752  00000+0  20597-3 0  9997
2 60416  53.1593 174.4967 0001764  92.0652 268.0551 15.30234211 79718
STARLINK-32255          
1 60417U 24141V   26003.91735124  .00004355  00000+0  15905-3 0  9992
2 60417  53.1569 183.4500 0001061  91.7406 268.3716 15.30202211 79663
STARLINK-32236          
1 60418U 24141W   26003.78250115  .00000952  00000+0  44266-4 0  9992
2 60418  53.1603 184.0287 0001028  95.8153 264.2965 15.30197610 79644
STARLINK-32250          
1 60425U 24144A   26003.68981492  .00000358  00000+0  24230-4 0  9990
2 60425  53.1605 159.3194 0001146  93.2784 266.8348 15.30186431 78459
STARLINK-32226          
1 60426U 24144B   26003.68875867  .00000516  00000+0  29551-4 0  9996
2 60426  53.1604 159.3109 0001034  95.6224 264.4895 15.30189279 79350
STARLINK-32254          
1 60427U 24144C   26003.74141345 -.00000388  00000+0 -99710-6 0  9996
2 60427  53.1604 158.9286 0001042  65.9753 294.1357 15.30170731 79400
STARLINK-32193          
1 60428U 24144D   26003.68664769  .00001318  00000+0  56639-4 0  9993
2 60428  53.1597 159.2976 0001113  97.0705 263.0422 15.30192079 79399
STARLINK-32242          
1 60429U 24144E   26003.74457620  .00000651  00000+0  34117-4 0  9993
2 60429  53.1597 158.9479 0001143  74.0328 286.0798 15.30190458 79405
